CCSDS_OMM_VERS = 2.0
CREATION_DATE  = 
ORIGINATOR     = 

OBJECT_NAME    = CZ-2C R/B
OBJECT_ID      = 2022-132E
CENTER_NAME    = EARTH
REF_FRAME      = TEME
TIME_SYSTEM    = UTC
MEAN_ELEMENT_THEORY = SGP/SGP4

EPOCH          = 2025-12-06T22:36:25.813152
MEAN_MOTION    = 15.54285413
ECCENTRICITY   = .00235934
INCLINATION    = 97.2944
RA_OF_ASC_NODE = 337.0314
ARG_OF_PERICENTER = 75.9421
MEAN_ANOMALY   = 284.4453

EPHEMERIS_TYPE = 0
CLASSIFICATION_TYPE = U
NORAD_CAT_ID   = 54039
ELEMENT_SET_NO = 999
REV_AT_EPOCH   = 17593
BSTAR          = .70806869E-3
MEAN_MOTION_DOT = .4691E-3
MEAN_MOTION_DDOT = 0

CCSDS_OMM_VERS = 2.0
CREATION_DATE  = 
ORIGINATOR     = 

OBJECT_NAME    = GSLV R/B
OBJECT_ID      = 2022-138AN
CENTER_NAME    = EARTH
REF_FRAME      = TEME
TIME_SYSTEM    = UTC
MEAN_ELEMENT_THEORY = SGP/SGP4

EPOCH          = 2025-12-06T15:15:01.496736
MEAN_MOTION    = 14.96086216
ECCENTRICITY   = .00236481
INCLINATION    = 87.3830
RA_OF_ASC_NODE = 197.5183
ARG_OF_PERICENTER = 125.7136
MEAN_ANOMALY   = 234.6301

EPHEMERIS_TYPE = 0
CLASSIFICATION_TYPE = U
NORAD_CAT_ID   = 54149
ELEMENT_SET_NO = 999
REV_AT_EPOCH   = 17001
BSTAR          = .4132547E-3
MEAN_MOTION_DOT = .4697E-4
MEAN_MOTION_DDOT = 0

CCSDS_OMM_VERS = 2.0
CREATION_DATE  = 
ORIGINATOR     = 

OBJECT_NAME    = XRISM
OBJECT_ID      = 2023-137A
CENTER_NAME    = EARTH
REF_FRAME      = TEME
TIME_SYSTEM    = UTC
MEAN_ELEMENT_THEORY = SGP/SGP4

EPOCH          = 2025-12-06T19:40:53.018112
MEAN_MOTION    = 15.10251322
ECCENTRICITY   = .00076439
INCLINATION    = 30.9997
RA_OF_ASC_NODE = 163.7624
ARG_OF_PERICENTER = 185.6893
MEAN_ANOMALY   = 174.3659

EPHEMERIS_TYPE = 0
CLASSIFICATION_TYPE = U
NORAD_CAT_ID   = 57800
ELEMENT_SET_NO = 999
REV_AT_EPOCH   = 12373
BSTAR          = .4337845E-3
MEAN_MOTION_DOT = .7374E-4
MEAN_MOTION_DDOT = 0

CCSDS_OMM_VERS = 2.0
CREATION_DATE  = 
ORIGINATOR     = 

OBJECT_NAME    = ACS3
OBJECT_ID      = 2024-077B
CENTER_NAME    = EARTH
REF_FRAME      = TEME
TIME_SYSTEM    = UTC
MEAN_ELEMENT_THEORY = SGP/SGP4

EPOCH          = 2025-12-06T21:41:00.687552
MEAN_MOTION    = 13.85051187
ECCENTRICITY   = .00779085
INCLINATION    = 97.2735
RA_OF_ASC_NODE = 297.8118
ARG_OF_PERICENTER = 351.1167
MEAN_ANOMALY   = 8.8611

EPHEMERIS_TYPE = 0
CLASSIFICATION_TYPE = U
NORAD_CAT_ID   = 59588
ELEMENT_SET_NO = 999
REV_AT_EPOCH   = 8133
BSTAR          = .23843508E-1
MEAN_MOTION_DOT = .27692E-3
MEAN_MOTION_DDOT = 0

