CZ-2C R/B               
1 54039U 22132E   25340.94196543  .00046910  00000+0  70807-3 0  9990
2 54039  97.2944 337.0314 0023593  75.9421 284.4453 15.54285413175932
GSLV R/B                
1 54149U 22138AN  25340.63543399  .00004697  00000+0  41325-3 0  9998
2 54149  87.3830 197.5183 0023648 125.7136 234.6301 14.96086216170017
XRISM                   
1 57800U 23137A   25340.82005808  .00007374  00000+0  43378-3 0  9999
2 57800  30.9997 163.7624 0007643 185.6893 174.3659 15.10251322123731
ACS3                    
1 59588U 24077B   25340.90348018  .00027692  00000+0  23844-1 0  9999
2 59588  97.2735 297.8118 0077908 351.1167   8.8611 13.85051187 81339
